ORBCOMM-X               
1 21576U 91050C   24185.93279669  .00000550  00000+0  17882-3 0  9995
2 21576  98.3890 252.8875 0004384 144.4493 215.6990 14.42575067731896
ORBCOMM FM01            
1 23545U 95017A   24185.82579149  .00005100  00000+0  66953-3 0  9993
2 23545  69.9655 217.0502 0004049 169.3404 190.7833 14.80839759560761
ORBCOMM FM02            
1 23546U 95017B   24185.86836713  .00006717  00000+0  88511-3 0  9990
2 23546  69.9679 236.4590 0005360 148.3416 211.8057 14.80511511560415
ORBCOMM FM08            
1 25112U 97084A   24185.82352562  .00001672  00000+0  53841-3 0  9991
2 25112  45.0132 236.6769 0009558 285.1342  74.8451 14.42869872391002
ORBCOMM FM10            
1 25113U 97084B   24185.83426703  .00001854  00000+0  59345-3 0  9999
2 25113  45.0145 238.5290 0007366 263.2873  96.7139 14.42770610566155
ORBCOMM FM12            
1 25115U 97084D   24185.88815951  .00001582  00000+0  51469-3 0  9990
2 25115  45.0138 238.1009 0007173 263.8579  96.1454 14.42600151390924
ORBCOMM FM09            
1 25116U 97084E   24185.83159880  .00001655  00000+0  53675-3 0  9990
2 25116  45.0142 239.0743 0008068 252.3955 107.6014 14.42564699391129
